cod_loc,id_provincia,id_departamento,categoria,provincia,departamento,localidad,nombre,domicilio,piso,cp,cod_area,telefono,mail,web,latitud,longitud,tipo_latitud_longitud,fuente,tipo_gestion,año_actualizacion
06049020,06,06049,Galerías de Arte,Buenos Aires,Azul,Azul,Oliva Drys espacio de arte,Prat 675,,7300,2281,632213,olivadrysarte@gmail.com,https://www.facebook.com/silvio.drys,-36.77840000,-59.85624000,localización precisa,Fondo Desarrollar 2020,Privado,2022
06203020,06,06203,Galerías de Arte,Buenos Aires,Coronel Suárez,Coronel Suárez,"Isidoro, Espacio De Arte",Av. Casey 1052,,7540,,,isidoroarte@gmail.com.ar,https://www.facebook.com/IsidoroArte,-37.45977580,-61.93132350,localización precisa,Arte On line,Privado,2022
06357110,06,06357,Galerías de Arte,Buenos Aires,General Pueyrredon,Mar del Plata,Silencio (dispositivo sonoro poético),Brandsen 3532,,7600,,,silenciodispositivosonoro@gmail.com,https://www.facebook.com/Silencio-183821545504151/,-37.98399027,-57.54800752,localización precisa,Fondo Desarrollar 2021,Privado,2022
06357110,06,06357,Galerías de Arte,Buenos Aires,General Pueyrredon,Mar del Plata,Casa Intermitente,Génova 2036,,7600,,,casaintermitente@gmail.com,https://www.facebook.com/casaintermitente/,-38.06465116,-57.5520899,localización precisa,Fondo Desarrollar 2021,Privado,2022
06371010,06,06371,Galerías de Arte,Buenos Aires,General San Martín,Villa Lynch,Centro De Edición Taller Galería ,Azcuénaga 4178,,1672,11,51627192,centrodeedicion@gmail.com,https://www.facebook.com/CentroEdicion,-34.59339850,-58.52592530,localización precisa,ArsOmnibús - relevamiento,Privado,2022
06441030,06,06441,Galerías de Arte,Buenos Aires,La Plata,City Bell,Vincent Galería,Calle 473 y 17,,1896,,,,https://www.instagram.com/vincent_galeria,-34.87644000,-58.04842000,localización precisa,Fondo Desarrollar 2020,Privado,2022
06441030,06,06441,Galerías de Arte,Buenos Aires,La Plata,La Plata,NN Galería,Calle 49  719,,1900,221,155449761,nngaleria@gmail.com,https://www.facebook.com/GaleriaNN/,-34.91650646,-57.95297793,localización precisa,Relevamiento SInCA,Privado,2022
06441030,06,06441,Galerías de Arte,Buenos Aires,La Plata,La Plata,Cósmiko Galeria Club,Calle 71 749,,1904,221,4523284,activacionmonaster@gmail.com,https://www.facebook.com/cosmikogaleriaclub,-34.93282000,-57.93213000,localización precisa,Fondo Desarrollar 2020,Privado,2022
06466020,06,06466,Galerías de Arte,Buenos Aires,Lezama,Lezama,Perro Verde Espacio De Arte,Libertad 82,,7116,2241,15569467,arteperroverde@gmail.com,Facebook: Perro Verde. Espacio de arte,-35.87637919,-57.89948347,localización precisa,AAGA - Buenos Aires Data,Privado,2022
06644010,06,06644,Galerías de Arte,Buenos Aires,Pinamar,Cariló,Cariló Arte Contemporáneo,Avellano 264,,7167,2254,570373,info@cariloarte.com.ar,www.cariloarte.com.ar,-37.16750900,-56.90256000,localización precisa,AAGA,Privado,2022
06756010,06,06756,Galerías de Arte,Buenos Aires,San Isidro,Beccar,Mchg-María Casado Home Gallery ,Juan Bautista de Lasalle 2156,,1643,11,1545416796,info@mariacasado.com.ar,https://www.facebook.com/mariacasadoHG,-34.45521630,-58.52161620,localización precisa,Relevamiento SInCA 2016,Privado,2022
06756010,06,06756,Galerías de Arte,Buenos Aires,San Isidro,San Isidro,Jacques Martínez,Roque Saenz Peña 267,4°,1642,11,35892701,info@galeriajacquesmartinez.com,https://www.galeriajacquesmartinez.com/es,-34.47274245,-58.50937340,localización precisa,Arte On line,Privado,2022
06756010,06,06756,Galerías de Arte,Buenos Aires,San Isidro,San Isidro,BR Art Gallery-Bohnenkamp y Revale ,Sebastián Elcano 406,,1640,11, 47436184,brartgallery@gmail.com,www.brartgallery.com.ar,-34.47021142,-58.49821880,localización precisa,Relevamiento SInCA,Privado,2022
06756010,06,06756,Galerías de Arte,Buenos Aires,San Isidro,San Isidro,Galería Isidro Miranda,Estados Unidos 726,,1642,11,43614034,,,-34.54029780,-58.50785790,localización precisa,Buenos Aires Data,Privado,2021
06756010,06,06756,Galerías de Arte,Buenos Aires,San Isidro,San Isidro,Espacio  De Arte  Zona,Ibañez 1378,,1642,11,31374699,espaciodeartezona@gmail.com,https://www.instagram.com/espaciodeartezona/,-34.45901587,-58.52450946,localización precisa,MAPA- Feria de Arte ,Privado,2022
06805010,06,06805,Galerías de Arte,Buenos Aires,Tigre,Tigre,Isla de Arte ,Av. de los Lagos 3115,,1648,11,53273863,contacto@isladearte.com,,-34.42262893,-58.65879536,localización precisa,MAPA- Feria de Arte,Privado,2022
06805011,07,06806,Galerías de Arte,Buenos Aires,Tigre,Tigre,Milo Espacio De Arte,Boulevard de Todos Los Santos 100,Loc.27 1º,1623,11,50034229,ventas@milolockett.com.ar,https://www.tiendamilolockett.com.ar/,-34.39104240,-58.71450016,localización precisa,AAGA - Buenos Aires Data,Privado,2022
06861010,06,06861,Galerías de Arte,Buenos Aires,Vicente Lopez,Vicente Lopez,Casa Florida,Gral. José María Paz 1530,,1602,11,47918220,casafloridacafe@gmail.com,https://www.facebook.com/lacasa.florida,-34.52725220,-58.49144110,localización precisa,ArsOmnibús - relevamiento,Privado,2022
02000010,02,02000,Galerías de Arte,Ciudad Autónoma de Buenos Aires,Ciudad Autónoma de Buenos Aires,Ciudad Autónoma de Buenos Aires,Abate Galería,Pasaje Bollini 2170,,1425,,,,https://www.facebook.com/AbateGaleria/,-34.58716500,-58.40402640,localización precisa,Buenos Aires Data,Privado,2021
02000010,02,02000,Galerías de Arte,Ciudad Autónoma de Buenos Aires,Ciudad Autónoma de Buenos Aires,Ciudad Autónoma de Buenos Aires,Acéfala Galería,Niceto Vega 4754,,1414,,,contacto@acefalagaleria.com,http://acefalagaleria.com/,-34.59264297,-58.43100968,localización precisa,Relevamiento SInCA,Privado,2022
02000010,02,02000,Galerías de Arte,Ciudad Autónoma de Buenos Aires,Ciudad Autónoma de Buenos Aires,Ciudad Autónoma de Buenos Aires,Adriana Budich,Gurruchaga 1145,,1414,11,48249800,galeria@adrianabudich.com,http://www.adrianabudich.com/,-34.59252244,-58.43436123,localización precisa,Buenos Aires Data - SInCA,Privado,2022
02000010,02,02000,Galerías de Arte,Ciudad Autónoma de Buenos Aires,Ciudad Autónoma de Buenos Aires,Ciudad Autónoma de Buenos Aires,Ag Espacio De Arte,Av. Alvear 1580,P.B.,1014,11,48152271,info@espacioag.com,http://ag-espaciodearte.blogspot.com/,-34.58997070,-58.38563400,localización precisa,Arte On line,Privado,2020
02000010,02,02000,Galerías de Arte,Ciudad Autónoma de Buenos Aires,Ciudad Autónoma de Buenos Aires,Ciudad Autónoma de Buenos Aires,Aldo De Sousa Galería De Arte,Arroyo 858 ,,1007,11,43930803,arroyo@aldodesousa.com.ar,https://aldodesousa.com/,-34.59180500,-58.37929900,localización precisa,AAGA - Buenos Aires data,Privado,2022
02000010,02,02000,Galerías de Arte,Ciudad Autónoma de Buenos Aires,Ciudad Autónoma de Buenos Aires,Ciudad Autónoma de Buenos Aires,"Alejandro Faggioni, Estudio De Arte",Sargento Cabral 881,5°,1059,11,43939995,alejandrofaggioni@sinectis.com.ar,http://www.alejandrofaggioni.com/,-34.59467850,-58.37965820,localización precisa,Arte On line - Buenos Aires Data,Privado,2022
02000010,02,02000,Galerías de Arte,Ciudad Autónoma de Buenos Aires,Ciudad Autónoma de Buenos Aires,Ciudad Autónoma de Buenos Aires,"Arcimboldo, Galería De Arte",Reconquista 761,P.B.,1003,,,pelusaborthwick@gmail.com,https://www.facebook.com/pages/Galeria-Arcimboldo,-34.59900290,-58.37273860,localización precisa,Arte On line - Buenos Aires Data,Privado,2022
02000010,02,02000,Galerías de Arte,Ciudad Autónoma de Buenos Aires,Ciudad Autónoma de Buenos Aires,Ciudad Autónoma de Buenos Aires,Áreatec,Av. de Mayo 1190,1°,1085,11,46546579,rrss@areatec.com.ar,http://www.areatec.com.ar/,-34.60915550,-58.38302770,localización precisa,Arte On line - Buenos Aires Data,Privado,2021
02000010,02,02000,Galerías de Arte,Ciudad Autónoma de Buenos Aires,Ciudad Autónoma de Buenos Aires,Ciudad Autónoma de Buenos Aires,Arroyo ,Arroyo 830 ,,1007,11,43253485,info@galarroyo.com,www.galarroyo.com,-34.59218000,-58.37909600,localización precisa,AAGA,Privado,2022
02000010,02,02000,Galerías de Arte,Ciudad Autónoma de Buenos Aires,Ciudad Autónoma de Buenos Aires,Ciudad Autónoma de Buenos Aires,Atocha – Club De Grabado Y Obra Gráfica Contemporánea,Batalla del Pari 613,,1416,11,47709384,info@atochagaleria.com.ar,https://www.facebook.com/AtochaGaleria,-34.60014946,-58.45383796,localización precisa,Mercado de Arte - relevamiento SInCa,Privado,2022
02000010,02,02000,Galerías de Arte,Ciudad Autónoma de Buenos Aires,Ciudad Autónoma de Buenos Aires,Ciudad Autónoma de Buenos Aires,BARRO Arte Contemporáneo,Caboto 531,,1157,11,49783759,galeria@barro.cc,http://www.barro.cc,-34.62874963,-58.35970483,localización precisa,Buenos Aires Data - Relevamiento SINCA,Privado,2022
02000010,02,02000,Galerías de Arte,Ciudad Autónoma de Buenos Aires,Ciudad Autónoma de Buenos Aires,Ciudad Autónoma de Buenos Aires,Beta  Sur,Caboto 725,,1157,11,50139330,betaorg.sur@gmail.com,https://www.instagram.com/beta.sur/,-34.63024727,-58.35714491,localización precisa,Buenos Aires Data,Privado,2021
02000010,02,02000,Galerías de Arte,Ciudad Autónoma de Buenos Aires,Ciudad Autónoma de Buenos Aires,Ciudad Autónoma de Buenos Aires,Bolmani Modern Art,Honduras 5550,,1414,,,info@bolmanimodernart.com,https://www.facebook.com/BolmaniMA/,-34.58455055,-58.43589337,localización precisa,Buenos Aires Data,Privado,2022
02000010,02,02000,Galerías de Arte,Ciudad Autónoma de Buenos Aires,Ciudad Autónoma de Buenos Aires,Ciudad Autónoma de Buenos Aires,Buenos Aires Fine Art,Cuba 1930,,1428,,,info@buenosairesfinearts.com,https://www.buenosairesfinearts.com/,-34.56234543,-58.45354573,localización precisa,Fondo Desarrollar 2021,Privado,2022
02000010,02,02000,Galerías de Arte,Ciudad Autónoma de Buenos Aires,Ciudad Autónoma de Buenos Aires,Ciudad Autónoma de Buenos Aires,Calvaresi,Defensa 1136,,1065,,,info@calvaresicontemporaneo.com,Facebook: Calvaresi,-34.62114371,-58.37134849,localización precisa,Buenos Aires Data,Privado,2022
02000010,02,02000,Galerías de Arte,Ciudad Autónoma de Buenos Aires,Ciudad Autónoma de Buenos Aires,Ciudad Autónoma de Buenos Aires,Camargo 1020 Espacio de Arte ,Camargo 1020,,1414,,,camargo1020espaciodearte@gmail.com,https://www.facebook.com/Camargo1020EspacioDeArte,-34.59601459,-58.44495996,localización precisa ,Fondo Desarrollar 2021,Privado,2022
02000010,02,02000,Galerías de Arte,Ciudad Autónoma de Buenos Aires,Ciudad Autónoma de Buenos Aires,Ciudad Autónoma de Buenos Aires,Camarones Arte Contemporáneo,Camarones 1645,,1416,11,45855738,info@camaronesarte.com,https://www.facebook.com/camaronesarte/,-34.60464000,-58.46484000,localización precisa ,Buenos Aires Data - Relevamiento SINCA,Privado,2022
02000010,02,02000,Galerías de Arte,Ciudad Autónoma de Buenos Aires,Ciudad Autónoma de Buenos Aires,Ciudad Autónoma de Buenos Aires,Casa Barneau,Pedro de Mendoza 1673,,1169,,,jbarneau2@gmail.com,https://www.instagram.com/casabarneau/,-34.63874000,-58.35805000,localización precisa ,Fondo Desarrollar 2020,Privado,2020
02000010,02,02000,Galerías de Arte,Ciudad Autónoma de Buenos Aires,Ciudad Autónoma de Buenos Aires,Ciudad Autónoma de Buenos Aires,Cefuri Espacio de Arte ,Patagones 2740,,1437,,,info@cefiroarte.com.ar,https://www.facebook.com/cefiroarte,-34.63745264,-58.40067600,localización precisa,Buenos Aires Data,Privado,2022
02000010,02,02000,Galerías de Arte,Ciudad Autónoma de Buenos Aires,Ciudad Autónoma de Buenos Aires,Ciudad Autónoma de Buenos Aires,Centoira Galería De Arte,French 2611 ,,1425,11,48055603,centoira@artecentoira.com.ar,https://www.facebook.com/ArteCentoira,-34.58967890,-58.40096000,localización precisa,AAGA - Buenos Aires Data,Privado,2021
02000010,02,02000,Galerías de Arte,Ciudad Autónoma de Buenos Aires,Ciudad Autónoma de Buenos Aires,Ciudad Autónoma de Buenos Aires,"Centro Newbery, Galería De Arte ",Jorge Newbery 3599,,1427,11,45535723,centralnewbery@gmail.com,http://www.centralnewbery.com.ar/,-34.58358300,-58.44929300,localización precisa,Buenos Aires Data - Relevamiento SINCA 2022,Privado,2022
02000010,02,02000,Galerías de Arte,Ciudad Autónoma de Buenos Aires,Ciudad Autónoma de Buenos Aires,Ciudad Autónoma de Buenos Aires,Colección Alvear Zurbarán,Av. Alvear 1658,,1014,,,jzenteno@zurbaran.com.ar,http://www.zurbaran.com.ar/,-34.58947070,-58.38639230,localización precisa,Arte On line - Buenos Aires Data,Privado,2021
02000010,02,02000,Galerías de Arte,Ciudad Autónoma de Buenos Aires,Ciudad Autónoma de Buenos Aires,Ciudad Autónoma de Buenos Aires,Colectivo Periferia ,Wenceslao Villafañe 101,,1160,11, 1559512419,colectivoperiferia.org@gmail.com,https://www.facebook.com/colectivoperiferia/,-34.63044266,-58.35715167,localización precisa,Buenos Aires Data - Relevamiento SINCA,Privado,2022
02000010,02,02000,Galerías de Arte,Ciudad Autónoma de Buenos Aires,Ciudad Autónoma de Buenos Aires,Ciudad Autónoma de Buenos Aires,Constitución Galería ,Del Valle Iberlucea 1140,,1160,11,38656162,espacioconstitucion@gmail.com,https://www.facebook.com/constituciongaleria/,-34.63823144,-58.36254873,localización precisa,Buenos Aires Data,Privado,2022
02000010,02,02000,Galerías de Arte,Ciudad Autónoma de Buenos Aires,Ciudad Autónoma de Buenos Aires,Ciudad Autónoma de Buenos Aires,Cosmocosa,Montevideo 1430,P.B.,1021,11,48116808,info@cosmocosa.com,https://www.facebook.com/cosmocosa,-34.59302380,-58.38975670,localización precisa,Buenos Aires Data,Privado,2022
02000010,02,02000,Galerías de Arte,Ciudad Autónoma de Buenos Aires,Ciudad Autónoma de Buenos Aires,Ciudad Autónoma de Buenos Aires,Cre-Arte Argentina ,Carlos Pellegrinio 877,,1009,,,crearteargentina.rlp@gmail.com,https://www.facebook.com/Cre-Arte-Argentina,-34.59824812,-58.38125543,localización precisa,Buenos Aires Data,Privado,2022
02000010,02,02000,Galerías de Arte,Ciudad Autónoma de Buenos Aires,Ciudad Autónoma de Buenos Aires,Ciudad Autónoma de Buenos Aires,"Dain, Usina Cultural",Nicaragua 4899,,1414,11,47783554,pedidosdain@gmail.com,https://www.facebook.com/dain.usinacultural/,-34.58597880,-58.42799930,localización precisa,Buenos Aires Data,Privado,2022
02000010,02,02000,Galerías de Arte,Ciudad Autónoma de Buenos Aires,Ciudad Autónoma de Buenos Aires,Ciudad Autónoma de Buenos Aires,De Santi Galería De Arte,Esmeralda 982,,1007,11,43142049,galeria@desanti.com.ar,,-34.59667590,-58.37853100,localización precisa,Buenos Aires Data,Privado,2021
02000010,02,02000,Galerías de Arte,Ciudad Autónoma de Buenos Aires,Ciudad Autónoma de Buenos Aires,Ciudad Autónoma de Buenos Aires,Del Infinito Arte,Av. Quintana 325,P.B.,1014,11,48138828,galeria@delinfinito.com,http://www.delinfinito.com/,-34.58975150,-58.38820950,localización precisa,Arte On line,Privado,2022
02000010,02,02000,Galerías de Arte,Ciudad Autónoma de Buenos Aires,Ciudad Autónoma de Buenos Aires,Ciudad Autónoma de Buenos Aires,Del Riachuelo Espacio de Arte,Av. Pedro de Mendoza 1887,,1169,11,43027053,,Facebook: Del Riachuelo. Espacio de Arte.,-34.63929530,-58.36158460,localización precisa,Buenos Aires Data,Privado,2022
02000010,02,02000,Galerías de Arte,Ciudad Autónoma de Buenos Aires,Ciudad Autónoma de Buenos Aires,Ciudad Autónoma de Buenos Aires,El Mirador,Brasil 301,,1154,,,info@elmiradorespacio.com,http://www.elmiradorespacio.com/,-34.62526860,-58.36973390,localización precisa,Buenos Aires Data,Privado,2021
02000010,02,02000,Galerías de Arte,Ciudad Autónoma de Buenos Aires,Ciudad Autónoma de Buenos Aires,Ciudad Autónoma de Buenos Aires,El Socorro,Suipacha 1331 ,,1011,11,43270717,,,-34.59244400,-58.37998600,localización precisa,AAGA - Buenos Aires Data,Privado,2021
02000010,02,02000,Galerías de Arte,Ciudad Autónoma de Buenos Aires,Ciudad Autónoma de Buenos Aires,Ciudad Autónoma de Buenos Aires,El Sótano Art Gallery,Soler 4802,,1425,,,elsotanoartspace@gmail.com,https://www.instagram.com/sotano.arte/,-34.58595214,-58.42626315,localización precisa,Buenos Aires Data,Privado,2021
02000010,02,02000,Galerías de Arte,Ciudad Autónoma de Buenos Aires,Ciudad Autónoma de Buenos Aires,Ciudad Autónoma de Buenos Aires,Elsi Del Río,Dorrego 1940,,1414,11,48990171,info@elsidelrio.com.ar,http://www.elsidelrio.com.ar/,-34.57936634,-58.44152476,localización precisa,Buenos Aires Data - Relevamiento SInCA 2022,Privado,2022
02000010,02,02000,Galerías de Arte,Ciudad Autónoma de Buenos Aires,Ciudad Autónoma de Buenos Aires,Ciudad Autónoma de Buenos Aires,Ernesto Catena Fotografía Contemporánea,Honduras 4882,1°,1414,11,48339499,info@ecfotografiacontemporanea.com,https://www.ecfotografiacontemporanea.com/,-34.58960750,-58.42915130,localización precisa,Buenos Aires Data,Privado,2021
02000010,02,02000,Galerías de Arte,Ciudad Autónoma de Buenos Aires,Ciudad Autónoma de Buenos Aires,Ciudad Autónoma de Buenos Aires,Espacio 10 Art Gallery ,Guatemala 4757,,1425,11,48310520,info@espacio10arte.com.ar,WWW.ESPACIO10.COM.AR,-34.58582870,-58.42500180,localización precisa,Buenos Aires Data,Privado,2021
02000010,02,02000,Galerías de Arte,Ciudad Autónoma de Buenos Aires,Ciudad Autónoma de Buenos Aires,Ciudad Autónoma de Buenos Aires,Espacio Biazzi Zanni,Defensa 763 ,,1065,11,43616809,info@biazzi.com.ar,https://www.facebook.com/espacio.biazzi,-34.61685030,-58.37179320,localización precisa,Relevamiento SInCA 2016,Privado,2022
02000010,02,02000,Galerías de Arte,Ciudad Autónoma de Buenos Aires,Ciudad Autónoma de Buenos Aires,Ciudad Autónoma de Buenos Aires,Espacio Cabutia ,Arenales 1239,PB H,1061,,,contacto@espaciocabutia.com,https://www.facebook.com/espaciocabutia/,-34.59444327,-58.38494511,localización precisa,Buenos Aires Data,Privado,2022
02000010,02,02000,Galerías de Arte,Ciudad Autónoma de Buenos Aires,Ciudad Autónoma de Buenos Aires,Ciudad Autónoma de Buenos Aires,Espacio Colegiales,Gral. Enrique Martínez 916,,1426,11,52175826,arte@espaciocolegiales.com.ar,http://www.espaciocolegiales.com.ar/,-34.57698550,-58.45421780,localización precisa,Arte On line,Privado,2022
02000010,02,02000,Galerías de Arte,Ciudad Autónoma de Buenos Aires,Ciudad Autónoma de Buenos Aires,Ciudad Autónoma de Buenos Aires,Espacio De Arte Banco Ciudad,Esmeralda 660,,1007,11,43298532,,www.bancociudad.com.ar,-34.60049100,-58.37842450,localización precisa,AAGA - Buenos Aires Data,Privado,2022
02000010,02,02000,Galerías de Arte,Ciudad Autónoma de Buenos Aires,Ciudad Autónoma de Buenos Aires,Ciudad Autónoma de Buenos Aires,Espacio Ftalo,Gorriti 3864,,1172,,,espacioftalo@hotmail.com,https://www.facebook.com/espacioftalo/,-34.59549210,-58.41927215,localización precisa,Buenos Aires Data,Privado,2022
02000010,02,02000,Galerías de Arte,Ciudad Autónoma de Buenos Aires,Ciudad Autónoma de Buenos Aires,Ciudad Autónoma de Buenos Aires,Espacio Los Vikings,Viamonte 1145,,1053,,,alegrelinares@gmail.com,https://gallery.com.ar/espacio-los-vikings,-34.60031590,-58.38315142,localización precisa,Buenos Aires Data,Privado,2021
02000010,02,02000,Galerías de Arte,Ciudad Autónoma de Buenos Aires,Ciudad Autónoma de Buenos Aires,Ciudad Autónoma de Buenos Aires,F/O Objetos Y Teorías ,Magallanes 802,,1166,11,1558942210,fo.objetosyteorias@gmail.com,https://www.facebook.com/FOobjetosyteorias/,-34.63948959,-58.36182318,localización precisa,Buenos Aires Data,Privado,2022
02000010,02,02000,Galerías de Arte,Ciudad Autónoma de Buenos Aires,Ciudad Autónoma de Buenos Aires,Ciudad Autónoma de Buenos Aires,Fino 630,Enrique Finochietto 630,,1143,,,espaciofinochietto@gmail.com,https://www.facebook.com/fino630.lacasaverde/,-34.62843094,-58.37389030,localización precisa,Buenos Aires Data,Privado,2021
02000010,02,02000,Galerías de Arte,Ciudad Autónoma de Buenos Aires,Ciudad Autónoma de Buenos Aires,Ciudad Autónoma de Buenos Aires,Francisco Traba Galería de Arte ,Marcelo Torcuato de Alvear 819,,1058,11,43118769,galeriaftraba@gmail.com,Facebook: Francisco Traba Galeria de Arte,-34.59605905,-58.37874683,localización precisa,Relevamiento SInCA,Privado,2022
02000010,02,02000,Galerías de Arte,Ciudad Autónoma de Buenos Aires,Ciudad Autónoma de Buenos Aires,Ciudad Autónoma de Buenos Aires,Fundación Federico Jorge Klemm,Marcelo Torcuato de Alvear 626,,1058,11,43123334,info@fundacionfjklemm.org,Facebook: Fundación Federico Jorge Klemm - Oficial,-34.59636780,-58.37606990,localización precisa,Buenos Aires Data,Privado,2022
02000010,02,02000,Galerías de Arte,Ciudad Autónoma de Buenos Aires,Ciudad Autónoma de Buenos Aires,Ciudad Autónoma de Buenos Aires,Fundación IDA,Jorge Newbery 3044,,1426,,,info@fundacionida.org,https://www.facebook.com/idafundacion/,-34.58862630,-58.45075560,localización precisa,Fondo Desarrollar 2020,Privado,2022
02000010,02,02000,Galerías de Arte,Ciudad Autónoma de Buenos Aires,Ciudad Autónoma de Buenos Aires,Ciudad Autónoma de Buenos Aires,Fundación PROA ,Av. Pedro de Mendoza 1929,,1169,11,41041000,info@proa.org,https://www.facebook.com/FundacionProa/,-34.63962810,-58.36172840,localización precisa,Buenos Aires Data,Privado,2022
02000010,02,02000,Galerías de Arte,Ciudad Autónoma de Buenos Aires,Ciudad Autónoma de Buenos Aires,Ciudad Autónoma de Buenos Aires,"Gachi Prieto Gallery, Contemporary Latin American Art",Uriarte 1373,,1414,11,47746656,info@gachiprieto.com,https://www.facebook.com/gachiprieto/,-34.58887743,-58.43434573,localización precisa,Arte On line - Buenos Aires Data,Privado,2022
02000010,02,02000,Galerías de Arte,Ciudad Autónoma de Buenos Aires,Ciudad Autónoma de Buenos Aires,Ciudad Autónoma de Buenos Aires,Galería 713 Arte Contemporáneo,Defensa 713,,1098,,,info@arte713.com,,-34.61624570,-58.37174940,localización precisa,Buenos Aires Data,Privado,2022
02000010,02,02000,Galerías de Arte,Ciudad Autónoma de Buenos Aires,Ciudad Autónoma de Buenos Aires,Ciudad Autónoma de Buenos Aires,Galería Arte x Arte ,Lavalleja 1062,,1414,,,info@artexarte.com.ar,https://www.facebook.com/artexarteespacio/,-34.59700660,-58.42843360,localización precisa,Buenos Aires Data,Privado,2022
02000010,02,02000,Galerías de Arte,Ciudad Autónoma de Buenos Aires,Ciudad Autónoma de Buenos Aires,Ciudad Autónoma de Buenos Aires,Galería Azur,Arenales 867,,1007,,,mensajes@galeriaazur.com,https://www.facebook.com/azurgaleria/,-34.59381731,-58.37953066,localización precisa,Buenos Aires Data,Privado,2022
02000010,02,02000,Galerías de Arte,Ciudad Autónoma de Buenos Aires,Ciudad Autónoma de Buenos Aires,Ciudad Autónoma de Buenos Aires,Galería Braque ,Salta 695,,1074,,,info@artebraque.com.ar,http://www.artebraque.com.ar/,-34.61621976,-58.38323786,localización precisa,Buenos Aires Data,Privado,2022
02000010,02,02000,Galerías de Arte,Ciudad Autónoma de Buenos Aires,Ciudad Autónoma de Buenos Aires,Ciudad Autónoma de Buenos Aires,Galería Buenos Aires Sur ,Bolívar 1268,,1141,,,,https://www.facebook.com/galeriabuenosairessur/,-34.62278876,-58.37271499,localización precisa,Buenos Aires Data,Privado,2022
02000010,02,02000,Galerías de Arte,Ciudad Autónoma de Buenos Aires,Ciudad Autónoma de Buenos Aires,Ciudad Autónoma de Buenos Aires,Galería Cecilia Caballero,Suipacha 1151,,1008,11,43930660,galeriaceciliacaballero@gmail.com,https://www.facebook.com/galeriaceciliacaballero,-34.59443898,-58.37986987,localización precisa,Relevamiento SInCA 2022,Privado,2022
02000010,02,02000,Galerías de Arte,Ciudad Autónoma de Buenos Aires,Ciudad Autónoma de Buenos Aires,Ciudad Autónoma de Buenos Aires,Galería Dabbah Torrejón,El Salvador 5176,,1414,,,info@dabbahtorrejon.com.ar,https://www.facebook.com/Dabbah-Torrej,-34.58636961,-58.43166028,localización precisa,Buenos Aires Data,Privado,2022
02000010,02,02000,Galerías de Arte,Ciudad Autónoma de Buenos Aires,Ciudad Autónoma de Buenos Aires,Ciudad Autónoma de Buenos Aires,Galería de Arte Alejandra Perotti,Zabala 3093,,1427,11,45530923,arteperotti@gmail.com,Facebook: Espacio Alejandra Perotti,-34.57408173,-58.45416493,localización precisa,AAGA,Privado,2022
02000010,02,02000,Galerías de Arte,Ciudad Autónoma de Buenos Aires,Ciudad Autónoma de Buenos Aires,Ciudad Autónoma de Buenos Aires,Galería de Arte Karina Paradiso,Av. del Libertador 4700,,1426,,,,,-34.56578100,-58.43329070,localización precisa,Buenos Aires Data,Privado,2021
02000010,02,02000,Galerías de Arte,Ciudad Autónoma de Buenos Aires,Ciudad Autónoma de Buenos Aires,Ciudad Autónoma de Buenos Aires,Galería De Arte Leonardo Da Vinci ,Libertad 1222,,1012,11,48168641,,,-34.59412260,-58.38447600,localización precisa,Buenos Aires Data,Privado,2021
02000010,02,02000,Galerías de Arte,Ciudad Autónoma de Buenos Aires,Ciudad Autónoma de Buenos Aires,Ciudad Autónoma de Buenos Aires,Galería De Arte Mercedes Giachetti,Defensa 718,,1065,11,43616307,galeriamgiachetti@gmail.com,https://www.facebook.com/galeriadeartemercedesgiachetti,-34.61625480,-58.37163960,localización precisa,Buenos Aires Data - Relevamiento SINCA 2022,Privado,2022
02000010,02,02000,Galerías de Arte,Ciudad Autónoma de Buenos Aires,Ciudad Autónoma de Buenos Aires,Ciudad Autónoma de Buenos Aires,Galería del Viejo Hotel ,Balcarce 1053,,1064,,,,https://www.instagram.com/galeriadelviejohotel/,-34.62000463,-58.37009023,localización precisa,Buenos Aires Data,Privado,2022
02000010,02,02000,Galerías de Arte,Ciudad Autónoma de Buenos Aires,Ciudad Autónoma de Buenos Aires,Ciudad Autónoma de Buenos Aires,Galería Federico Towpyha,Tucumán 3148,,1189,11,48635893,federicotopia@yahoo.com.ar,https://www.facebook.com/federicotowpyha.artecontemporaneo/,-34.60075560,-58.41000790,localización precisa,Arte On line,Privado,2022
02000010,02,02000,Galerías de Arte,Ciudad Autónoma de Buenos Aires,Ciudad Autónoma de Buenos Aires,Ciudad Autónoma de Buenos Aires,Galería Gráfica Gestual,Arce 730,,1426,11,47790230,galeriagraficagestual@gmail.com,http://galeriagraficagestual.blogspot.com.ar/,-34.56873660,-58.43482150,localización precisa,Arte On line - Buenos Aires Data,Privado,2022
02000010,02,02000,Galerías de Arte,Ciudad Autónoma de Buenos Aires,Ciudad Autónoma de Buenos Aires,Ciudad Autónoma de Buenos Aires,Galería Hache,Loyola 32,,1414,11,48568787,info@hachegaleria.com,https://www.facebook.com/hachegaleria,-34.60045000,-58.43146000,localización precisa,Buenos Aires Data  - Fondo Desarrollar 2021,Privado,2022
02000010,02,02000,Galerías de Arte,Ciudad Autónoma de Buenos Aires,Ciudad Autónoma de Buenos Aires,Ciudad Autónoma de Buenos Aires,Galería Huellas,Sargento Cabral 881,P.B.,1059,11,43287410,info@huellasdearte.com.ar,Facebook: Galería Huellas,-34.59467850,-58.37965820,localización precisa,Arte On line - Buenos Aires Data,Privado,2021
02000010,02,02000,Galerías de Arte,Ciudad Autónoma de Buenos Aires,Ciudad Autónoma de Buenos Aires,Ciudad Autónoma de Buenos Aires,Galería Isabel Anchorena ,Libertad 1389,,1016,11,48115335,buenosaires@galeriaisabelanchorena.com,https://www.facebook.com/galeriaisabelanchorena/,-34.59172906,-58.38430769,localización precisa,Buenos Aires Data - Relevamiento SINCA 2022,Privado,2022
02000010,02,02000,Galerías de Arte,Ciudad Autónoma de Buenos Aires,Ciudad Autónoma de Buenos Aires,Ciudad Autónoma de Buenos Aires,Galería Lagard,Suipacha 1216,,1011,,,galerialagard@gmail.com,https://www.galerialagard.com/,-34.59378680,-58.38010090,localización precisa,Buenos Aires Data,Privado,2021
02000010,02,02000,Galerías de Arte,Ciudad Autónoma de Buenos Aires,Ciudad Autónoma de Buenos Aires,Ciudad Autónoma de Buenos Aires,Galería Magna Arte Argentino,Libertad 1033 ,,1011,11,48152792,info@galeriamagna.com,www.galeriamagna.com,-34.59648650,-58.38421350,localización precisa,AAGA - Buenos Aires Data,Privado,2022
02000010,02,02000,Galerías de Arte,Ciudad Autónoma de Buenos Aires,Ciudad Autónoma de Buenos Aires,Ciudad Autónoma de Buenos Aires,Galería Mar Dulce,Uriarte 1490 ,,1414,11,1553193597,galeriamardulce@gmail.com,http://galeriamardulce.blogspot.com.ar/,-34.58821700,-58.43331400,localización precisa,Relevamiento SInCA 2016,Privado,2022
02000010,02,02000,Galerías de Arte,Ciudad Autónoma de Buenos Aires,Ciudad Autónoma de Buenos Aires,Ciudad Autónoma de Buenos Aires,Galería Matilde Bensignor,Benjamín Matienzo 2460,P.B.,1426,11,47752331,galeriamatildebensignor@gmail.com,www.matildebensignor.com,-34.57330810,-58.44026810,localización precisa,AAGA - Buenos Aires Data,Privado,2021
02000010,02,02000,Galerías de Arte,Ciudad Autónoma de Buenos Aires,Ciudad Autónoma de Buenos Aires,Ciudad Autónoma de Buenos Aires,Galería Mediterránea,Pacheco 2380,,1431,11,45226527,galeriamediterranea@gmail.com,http://www.galeriamediterranea.com.ar/,-34.57336210,-58.48401430,localización precisa,Buenos Aires Data,Privado,2022
02000010,02,02000,Galerías de Arte,Ciudad Autónoma de Buenos Aires,Ciudad Autónoma de Buenos Aires,Ciudad Autónoma de Buenos Aires,Galería de Arte Marier,Av. Cabildo 1057,,1426,,,galeriamarier@gmail.com,https://www.facebook.com/galeriamarier,-34.56864222,-58.44673910,localización precisa,Relevamiento SInCA,Privado,2022
02000010,02,02000,Galerías de Arte,Ciudad Autónoma de Buenos Aires,Ciudad Autónoma de Buenos Aires,Ciudad Autónoma de Buenos Aires,Galería Nora Fisch,Av. Córdoba 5222,,1414,11,1562352030,contact@norafisch.com,https://www.facebook.com/GaleriaNoraFisch,-34.58996740,-58.43657820,localización precisa,Buenos Aires Data - Relevamiento SInCA2022,Privado,2022
02000010,02,02000,Galerías de Arte,Ciudad Autónoma de Buenos Aires,Ciudad Autónoma de Buenos Aires,Ciudad Autónoma de Buenos Aires,Galería Palatina ,Arroyo 821 ,,1007,11,43270620,palatina@fibertel.com.ar,https://www.instagram.com/galeriapalatina,-34.59208790,-58.37883600,localización precisa,Buenos Aires Data - Relevamiento SInCA 2022,Privado,2022
02000010,02,02000,Galerías de Arte,Ciudad Autónoma de Buenos Aires,Ciudad Autónoma de Buenos Aires,Ciudad Autónoma de Buenos Aires,Galería Rubbers Internacional ,Av. Alvear 1640,,1014,11,48161869,info@rubbers.com.ar,http://www.rubbers.com.ar/,-34.58941917,-58.38635790,localización precisa,Buenos Aires Data - Relevamiento SInCA 2022,Privado,2022
02000010,02,02000,Galerías de Arte,Ciudad Autónoma de Buenos Aires,Ciudad Autónoma de Buenos Aires,Ciudad Autónoma de Buenos Aires,Galería Unión ,Costa Rica 5929,,1414,,,Info@galeriaunion.com,https://www.instagram.com/galeriaunion/,-34.58000922,-58.43798488,localización precisa,Buenos Aires Data,Privado,2022
02000010,02,02000,Galerías de Arte,Ciudad Autónoma de Buenos Aires,Ciudad Autónoma de Buenos Aires,Ciudad Autónoma de Buenos Aires,Galería Vasari,Esmeralda 1357,,1007,11,43270664,vasari@galeriavasari.com.ar,http://www.galeriavasari.com.ar/,-34.59208810,-58.37824920,localización precisa,Arte On line - Buenos Aires Data,Privado,2022
02000010,02,02000,Galerías de Arte,Ciudad Autónoma de Buenos Aires,Ciudad Autónoma de Buenos Aires,Ciudad Autónoma de Buenos Aires,Galería Vermeer,Suipacha 1168 ,,1008,11,43935102,galeriavermeer@gmail.com,https://www.facebook.com/galeriavermeer,-34.59459890,-58.37998500,localización precisa,AAGA,Privado,2022
02000010,02,02000,Galerías de Arte,Ciudad Autónoma de Buenos Aires,Ciudad Autónoma de Buenos Aires,Ciudad Autónoma de Buenos Aires,Galería Wussmann Menegazzo,Venezuela 570,,1095,11,1556389783,cesarmenegazzocane@mac.com,https://www.facebook.com/Cesar.Menegazzo.ex.WUSSMANN,-34.61381787,-58.37422945,localización precisa,Buenos Aires Data,Privado,2021
02000010,02,02000,Galerías de Arte,Ciudad Autónoma de Buenos Aires,Ciudad Autónoma de Buenos Aires,Ciudad Autónoma de Buenos Aires,Granada Gallery,Godoy Cruz 1644,,1414,,,granadagallery@gmail.com,https://www.facebook.com/granadagallery2015/,-34.58773543,-58.43442569,localización precisa,Buenos Aires Data,Privado,2021
02000010,02,02000,Galerías de Arte,Ciudad Autónoma de Buenos Aires,Ciudad Autónoma de Buenos Aires,Ciudad Autónoma de Buenos Aires,Guevara Gallery,Defensa 982,,1065,11,43627718,info@luxurydesignstore.com,http://www.guevaragallery.com/,-34.61939930,-58.37131130,localización precisa,Buenos Aires Data,Privado,2021
02000010,02,02000,Galerías de Arte,Ciudad Autónoma de Buenos Aires,Ciudad Autónoma de Buenos Aires,Ciudad Autónoma de Buenos Aires,H. Y H. Boggiano,Arenales 867 ,,1061,11,43930109,,,-34.59390200,-58.37934200,localización precisa,Buenos Aires Data,Privado,2021
02000010,02,02000,Galerías de Arte,Ciudad Autónoma de Buenos Aires,Ciudad Autónoma de Buenos Aires,Ciudad Autónoma de Buenos Aires,"Henrique Faría Ba, Galería De Arte",Libertad 1630,,1016,11,48133251,info@henriquefaria-ba.com,,-34.58899420,-58.38351090,localización precisa,Arte On line - Buenos Aires Data,Privado,2022
02000010,02,02000,Galerías de Arte,Ciudad Autónoma de Buenos Aires,Ciudad Autónoma de Buenos Aires,Ciudad Autónoma de Buenos Aires,Hilda Solano Arte Y Diseño Latinoamericano,Av. Alvear 1777 ,,1014,11,48122402,,,-34.58854790,-58.38779940,localización precisa,AAGA - Buenos Aires Data,Privado,2022
02000010,02,02000,Galerías de Arte,Ciudad Autónoma de Buenos Aires,Ciudad Autónoma de Buenos Aires,Ciudad Autónoma de Buenos Aires,Hilo Galería,Scalabrini Ortiz 1396,,1414,11,1568260005,hilogaleria@gmail.com,www.hilogaleria.com ,-34.59217100,-58.42722100,localización precisa,Buenos Aires Data - Relevamiento SINCA 2022,Privado,2021
02000010,02,02000,Galerías de Arte,Ciudad Autónoma de Buenos Aires,Ciudad Autónoma de Buenos Aires,Ciudad Autónoma de Buenos Aires,Hoy En El Arte,Juncal 848 ,,1062,11,43222208,,https://www.facebook.com/hoyenelarte,-34.59285470,-58.37932470,localización precisa,AAGA - Buenos Aires Data,Privado,2022
02000010,02,02000,Galerías de Arte,Ciudad Autónoma de Buenos Aires,Ciudad Autónoma de Buenos Aires,Ciudad Autónoma de Buenos Aires,IMAGINARIO ,Defensa 1179,Local 6,1098,11,67886730,galeria.imaginarioarte@gmail.com,https://www.facebook.com/galeriadearte.imaginario/,-34.62146521,-58.37148282,localización precisa,MAPA- Feria de Arte ,Privado,2022
02000010,02,02000,Galerías de Arte,Ciudad Autónoma de Buenos Aires,Ciudad Autónoma de Buenos Aires,Ciudad Autónoma de Buenos Aires,Isla Flotante,Viamonte 776,,1053,11,50161760,info@islaflotante.com,https://gallery.com.ar/galeria-isla-flotante/,-34.59992000,-58.37782000,localización precisa,Buenos Aires Data - Relevamiento SINCA,Privado,2022
02000010,02,02000,Galerías de Arte,Ciudad Autónoma de Buenos Aires,Ciudad Autónoma de Buenos Aires,Ciudad Autónoma de Buenos Aires,Jorge Mara - La Ruche,Paraná 1133,,1018,11,48130552,info@jorgemaralaruche.com.ar,https://www.jorgemaralaruche.com.ar/,-34.59537750,-58.38847720,localización precisa,Arte On line - Buenos Aires Data - Relevamiento SINCA 2022,Privado,2022
02000010,02,02000,Galerías de Arte,Ciudad Autónoma de Buenos Aires,Ciudad Autónoma de Buenos Aires,Ciudad Autónoma de Buenos Aires,LA ARGENTINA/Galería de Arte Ricardo López,Arenales 966,,1061,11,58387838,ricardolopezgaleria@yahoo.com.ar,https://www.facebook.com/GaleriaRicardoLopez/,-34.59416538,-58.38087083,localización precisa,MAPA- Feria de Arte - Buenos Aires Data,Privado,2022
02000010,02,02000,Galerías de Arte,Ciudad Autónoma de Buenos Aires,Ciudad Autónoma de Buenos Aires,Ciudad Autónoma de Buenos Aires,La Bodega del Pintor-Arte y vinos,Carlos Calvo 420,,1102,11,43625186,info@enologica.net,https://www.instagram.com/la_bodega_del_pintor/,-34.61961000,-58.37180000,localización precisa,Fondo Desarrollar 2020,Privado,2022
02000010,02,02000,Galerías de Arte,Ciudad Autónoma de Buenos Aires,Ciudad Autónoma de Buenos Aires,Ciudad Autónoma de Buenos Aires,"Laura Haber, Galería De Arte",O'Higgins 1361,,1426,11,47842426,galerialaurahaber@gmail.com,https://www.galerialaurahaber.com/,-34.56674460,-58.44690950,localización precisa,Arte On line - Buenos Aires Data,Privado,2022
02000010,02,02000,Galerías de Arte,Ciudad Autónoma de Buenos Aires,Ciudad Autónoma de Buenos Aires,Ciudad Autónoma de Buenos Aires,"Liliana Rodríguez, Galería De Arte",Billinghurst 750,,1174,,,galerialilianarodriguez@hotmail.com,https://www.facebook.com/galerialilianarodriguez/,-34.60117260,-58.41521530,localización precisa,Arte On line - Buenos Aires Data,Privado,2022
02000010,02,02000,Galerías de Arte,Ciudad Autónoma de Buenos Aires,Ciudad Autónoma de Buenos Aires,Ciudad Autónoma de Buenos Aires,Loft Espacio Alfa,San Martín 492 ,4°,1004,11,43289670,info@loftespacioalfa.com.ar,http://www.loftespacioalfa.com.ar/,-34.60232470,-58.37389820,localización precisa,AAGA - Buenos Aires Data,Privado,2021
02000010,02,02000,Galerías de Arte,Ciudad Autónoma de Buenos Aires,Ciudad Autónoma de Buenos Aires,Ciudad Autónoma de Buenos Aires,Los Coleccionistas,Libertad 978 ,,1012,11,48161752,info@loscoleccionistas.com,www.loscoleccionistas.com,-34.59717920,-58.38450660,localización precisa,AAGA - Buenos Aires Data,Privado,2022
02000010,02,02000,Galerías de Arte,Ciudad Autónoma de Buenos Aires,Ciudad Autónoma de Buenos Aires,Ciudad Autónoma de Buenos Aires,María Calcaterra ,José León Pagano 2649,,1425,11,48011399,info@mcmcgaleria.com,http://www.mariacalcaterra.com ,-34.58378436,-58.39947839,localización precisa,Buenos Aires Data - Relevamiento SInCA 2022,Privado,2022
02000010,02,02000,Galerías de Arte,Ciudad Autónoma de Buenos Aires,Ciudad Autónoma de Buenos Aires,Ciudad Autónoma de Buenos Aires,MAMAN Fine Art Gallery,Av. del Libertador 2475,,1425,11, 48043700,galeria@mamanfineart.com.ar,https://mamanfineart.com.ar/,-34.57873778,-58.40581036,localización precisa,Relevamiento SInCA,Privado ,2022
02000010,02,02000,Galerías de Arte,Ciudad Autónoma de Buenos Aires,Ciudad Autónoma de Buenos Aires,Ciudad Autónoma de Buenos Aires,Microtaller Hogareño,Balboa 416,,1414,,,,,-34.59149875,-58.46709727,localización precisa,Buenos Aires Data,Privado,2022
02000010,02,02000,Galerías de Arte,Ciudad Autónoma de Buenos Aires,Ciudad Autónoma de Buenos Aires,Ciudad Autónoma de Buenos Aires,Miranda Bosch Gallery ,Montevideo 1723,,1021,11,48153515,arte@mirandabosch.com,https://art.mirandabosch.com/,-34.59047750,-58.38664410,localización precisa,Buenos Aires Data,Privado,2022
02000010,02,02000,Galerías de Arte,Ciudad Autónoma de Buenos Aires,Ciudad Autónoma de Buenos Aires,Ciudad Autónoma de Buenos Aires,Mite Galería ,Av. Santa Fe 2729,1°,1425,11,48229433,info@mitegaleria.com.ar,http://www.mitegaleria.com.ar,-34.59307100,-58.40532400,localización precisa,Mercado de Arte - Buenos Aires Data - Relevamiento SInCa,Privado,2022
02000010,02,02000,Galerías de Arte,Ciudad Autónoma de Buenos Aires,Ciudad Autónoma de Buenos Aires,Ciudad Autónoma de Buenos Aires,Mitra Arte,Av. Santa Fe 1660,L.70,1060,11,1540824862,mitracontemporaneo@gmail.com,Facebook: Mitra Arte Argentino Contemporaneo,-34.59579780,-58.39115010,localización precisa,Arte On line,Privado,2021
02000010,02,02000,Galerías de Arte,Ciudad Autónoma de Buenos Aires,Ciudad Autónoma de Buenos Aires,Ciudad Autónoma de Buenos Aires,MM Gallery (ex Studio 488),Rocamora 4550,2° B,1184,11,1550127560,info@mmgallery.de,https://gallery.com.ar/mm-gallery/,-34.59905563,-58.42857086,localización precisa,Buenos Aires Data - Relevamiento SInCA 2022,Privado,2022
02000010,02,02000,Galerías de Arte,Ciudad Autónoma de Buenos Aires,Ciudad Autónoma de Buenos Aires,Ciudad Autónoma de Buenos Aires,Mock Galería,Suipacha 1217,P.B.,1011,11,43289887,,,-34.59382550,-58.38005280,localización precisa,Arte On line,Privado,2021
02000010,02,02000,Galerías de Arte,Ciudad Autónoma de Buenos Aires,Ciudad Autónoma de Buenos Aires,Ciudad Autónoma de Buenos Aires,Moria Galería ,Thames 608,,1414,,,holamoria@gmail.com,https://www.facebook.com/moriagaleria/,-34.59399281,-58.44168244,localización precisa,Buenos Aires Data,Privado,2022
02000010,02,02000,Galerías de Arte,Ciudad Autónoma de Buenos Aires,Ciudad Autónoma de Buenos Aires,Ciudad Autónoma de Buenos Aires,Mosto & Rojas,Paraguay 934,1°,1057,11,43281675,info@mostorojasarte.com,,-34.59775040,-58.38031100,localización precisa,Buenos Aires Data - Relevamiento SINCA,Privado,2021
02000010,02,02000,Galerías de Arte,Ciudad Autónoma de Buenos Aires,Ciudad Autónoma de Buenos Aires,Ciudad Autónoma de Buenos Aires,Munar Arte ,Av. Pedro de Mendoza 1555,,1156,,,info@artemunar.com.ar,https://www.facebook.com/artemunar/,-34.63745079,-58.35661730,localización precisa,Buenos Aires Data - Relevamiento SINCA,Privado,2022
02000010,02,02000,Galerías de Arte,Ciudad Autónoma de Buenos Aires,Ciudad Autónoma de Buenos Aires,Ciudad Autónoma de Buenos Aires,Mundo Nuevo Gallery Art,Callao Av.  1870,P.B.,1024,11,48047321,arte@fundacionmundonuevo.org.ar,https://www.facebook.com/mundonuevogalleryart/,-34.58858090,-58.38838900,localización precisa,Arte On line,Privado,2022
02000010,02,02000,Galerías de Arte,Ciudad Autónoma de Buenos Aires,Ciudad Autónoma de Buenos Aires,Ciudad Autónoma de Buenos Aires,Nazli Kalayci Art Dealer,Las Heras 2049,4°,1127,11,48032070,info@nkartdealer.com.ar,https://www.instagram.com/nazlik.artdealer/,-34.58967310,-58.39442770,localización precisa,Arte On line - Buenos Aires Data,Privado,2022
02000010,02,02000,Galerías de Arte,Ciudad Autónoma de Buenos Aires,Ciudad Autónoma de Buenos Aires,Ciudad Autónoma de Buenos Aires,Norma Duek Art Gallery,Av. Del Libertador 2237 ,,1425,11,1534474010,norma@duek.com,http://www.normaduek.com/,-34.58080150,-58.40426800,localización precisa,AAGA - Buenos Aires Data,Privado,2022
02000010,02,02000,Galerías de Arte,Ciudad Autónoma de Buenos Aires,Ciudad Autónoma de Buenos Aires,Ciudad Autónoma de Buenos Aires,Oda Oficinas de Arte ,Paraná 759,,1017,11,43714738,info@odaarte.com,https://www.facebook.com/odaarte/,-34.59991585,-58.38808383,localización precisa,Buenos Aires Data,Privado,2022
02000010,02,02000,Galerías de Arte,Ciudad Autónoma de Buenos Aires,Ciudad Autónoma de Buenos Aires,Ciudad Autónoma de Buenos Aires,Ofelia Casa Teatro,Honduras 4761,,1414,11,48314037,,,-34.59033870,-58.42769880,localización precisa,Buenos Aires Data,Privado,2021
02000010,02,02000,Galerías de Arte,Ciudad Autónoma de Buenos Aires,Ciudad Autónoma de Buenos Aires,Ciudad Autónoma de Buenos Aires,Original Múltiple Arte Grabado,Venezuela 468 ,,1095,11,43422014,,https://www.facebook.com/originalmultiple,-34.61371640,-58.37269560,localización precisa,Relevamiento SInCA 2016,Privado,2022
02000010,02,02000,Galerías de Arte,Ciudad Autónoma de Buenos Aires,Ciudad Autónoma de Buenos Aires,Ciudad Autónoma de Buenos Aires,Otero ,Scalabrini Ortiz 1693,,1414,,,,,-34.59040660,-58.42393710,localización precisa,Buenos Aires Data,Privado,2021
02000010,02,02000,Galerías de Arte,Ciudad Autónoma de Buenos Aires,Ciudad Autónoma de Buenos Aires,Ciudad Autónoma de Buenos Aires,Otto Galería ,Paraná 1158,,1018,,,otto@ottogaleria.com,https://www.facebook.com/ottogaleria/,-34.59519050,-58.38854370,localización precisa,Buenos Aires Data,Privado,2022
02000010,02,02000,Galerías de Arte,Ciudad Autónoma de Buenos Aires,Ciudad Autónoma de Buenos Aires,Ciudad Autónoma de Buenos Aires,Pabellón 4 Arte Contemporáneo,Juan Ramírez de Velasco 556,,1414,11,48562118,galeria@pabellon4.com,https://www.facebook.com/Pabellon4ArteContemporaneo,-34.59801000,-58.43727000,localización precisa,Buenos Aires Data -Fondo Desarrollar 2020 - Relevamiento SINCA 2022,Privado,2022
02000010,02,02000,Galerías de Arte,Ciudad Autónoma de Buenos Aires,Ciudad Autónoma de Buenos Aires,Ciudad Autónoma de Buenos Aires,Pac Quintana Productora Cultural,Acoyte 743,Piso 10 A,1414,11,58823810,info@quintanapac.com.ar  ,www.quintanapac.com.ar,-34.60975053,-58.43951915,localización precisa,MAPA- Feria de Arte,Privado,2022
02000010,02,02000,Galerías de Arte,Ciudad Autónoma de Buenos Aires,Ciudad Autónoma de Buenos Aires,Ciudad Autónoma de Buenos Aires,Palermo H,Tucumán 712,,1049,,,galeriadeartepalermoh@sion.com,https://www.facebook.com/galeriadeartepalermoh/,-34.58149449,-58.43961471,localización precisa,Buenos Aires Data,Privado,2022
02000010,02,02000,Galerías de Arte,Ciudad Autónoma de Buenos Aires,Ciudad Autónoma de Buenos Aires,Ciudad Autónoma de Buenos Aires,"Pasaje 17, Arte Contemporáneo",Bartolomé Mitre 1559,,1037,11,43711651,espaciodearte@ospoce.com.ar,https://www.facebook.com/galeria.pasaje/,-34.60771120,-58.38791190,localización precisa,Arte On line,Privado,2022
02000010,02,02000,Galerías de Arte,Ciudad Autónoma de Buenos Aires,Ciudad Autónoma de Buenos Aires,Ciudad Autónoma de Buenos Aires,Pasto,Av. Paseo Colón 1490,,1063,11,48043060,hola@pastogaleria.com.ar,www.pastogaleria.com.ar/,-34.62487569,-58.36758909,localización precisa,Buenos Aires Data - Relevamiento SINCA,Privado,2022
02000010,02,02000,Galerías de Arte,Ciudad Autónoma de Buenos Aires,Ciudad Autónoma de Buenos Aires,Ciudad Autónoma de Buenos Aires,Patio Thames Bazar De Arte,Thames 1678,,1414,11,48328070,contacto@patiothames.com.ar,https://www.facebook.com/patiothames,-34.58754590,-58.43038050,localización precisa,Arte On line - Buenos Aires Data,Privado,2021
02000010,02,02000,Galerías de Arte,Ciudad Autónoma de Buenos Aires,Ciudad Autónoma de Buenos Aires,Ciudad Autónoma de Buenos Aires,Peras De Olmo Ars Continua,Niceto Vega 4678,,1414,11,32516090,,https://www.facebook.com/perasdeolmoAC,-34.59323610,-58.43006750,localización precisa,Arte On line,Privado,2022
02000010,02,02000,Galerías de Arte,Ciudad Autónoma de Buenos Aires,Ciudad Autónoma de Buenos Aires,Ciudad Autónoma de Buenos Aires,Piedras,Av. Rivadavia 2625,4°,1034,11,20659844,info@piedrasgaleria.com,www.espaciopiedras.com,-34.60998060,-58.40368020,localización precisa,Buenos Aires Data - Relevamiento SINCA,Privado,2022
02000010,02,02000,Galerías de Arte,Ciudad Autónoma de Buenos Aires,Ciudad Autónoma de Buenos Aires,Ciudad Autónoma de Buenos Aires,Popa Galería De Arte Contemporáneo ,Gregorio Aráoz de Lamadrid 882,,1166,11,43027244,popa.arte@gmail.com,https://www.facebook.com/popa.espaciodearte/,-34.63946830,-58.36483760,localización precisa,Buenos Aires Data,Privado,2022
02000010,02,02000,Galerías de Arte,Ciudad Autónoma de Buenos Aires,Ciudad Autónoma de Buenos Aires,Ciudad Autónoma de Buenos Aires,Praxis Arte Internacional,Arenales 1311 ,,1061,11,48138639,praxis7@praxis-art.com,http://www.praxis-art.com/,-34.59456950,-58.38610660,localización precisa,Buenos Aires Data - Relevamiento SInCA 2022,Privado,2022
02000010,02,02000,Galerías de Arte,Ciudad Autónoma de Buenos Aires,Ciudad Autónoma de Buenos Aires,Ciudad Autónoma de Buenos Aires,QUADRO,Caffarena 199,,1157,11,35064630,infoquadrogaleria@gmail.com,https://www.facebook.com/QUADROGALERIA/,-34.63082273,-58.35800537,localización precisa,Buenos Aires Data,Privado,2021
02000010,02,02000,Galerías de Arte,Ciudad Autónoma de Buenos Aires,Ciudad Autónoma de Buenos Aires,Ciudad Autónoma de Buenos Aires,Quema La Nave,Venezuela 468,,1095,11,,info@quemalanave.com.ar,https://www.facebook.com/quema.la.nave/,-34.61377000,-58.37268000,localización precisa,Fondo Desarrollar 2021,Privado,2022
02000010,02,02000,Galerías de Arte,Ciudad Autónoma de Buenos Aires,Ciudad Autónoma de Buenos Aires,Ciudad Autónoma de Buenos Aires,Quimera Galería ,Guemes 4474,,1425,11,47728553,info@quimeragaleria.com,www.quimeragaleria.com,-34.58213368,-58.42279846,localización precisa,Mercado de Arte - Buenos Aires Data - Relevamiento SInCa 2022,Privado,2022
02000010,02,02000,Galerías de Arte,Ciudad Autónoma de Buenos Aires,Ciudad Autónoma de Buenos Aires,Ciudad Autónoma de Buenos Aires,Revolver Galería ,José León Pagano 2750,,1425,,,contacto@revolvergaleria.com,www.revolvergaleria.com,-34.58342370,-58.40026722,localización precisa,Buenos Aires Data,Privado,2022
02000010,02,02000,Galerías de Arte,Ciudad Autónoma de Buenos Aires,Ciudad Autónoma de Buenos Aires,Ciudad Autónoma de Buenos Aires,Rg En El Arte,Av. Congreso 1865,5°,1428,11,47885817,rgenelarte@yahoo.com.ar,Facebook: RG en el Arte,-34.55260720,-58.45701680,localización precisa,AAGA - Buenos Aires Data,Privado,2022
02000010,02,02000,Galerías de Arte,Ciudad Autónoma de Buenos Aires,Ciudad Autónoma de Buenos Aires,Ciudad Autónoma de Buenos Aires,Roldán Moderno,Juncal 743,,1062,11,43940830,galeria@roldan.cc,https://moderno.roldan.cc/,-34.59282520,-58.37795160,localización precisa,Buenos Aires Data - Relevamiento SINCA 2022,Privado,2022
02000010,02,02000,Galerías de Arte,Ciudad Autónoma de Buenos Aires,Ciudad Autónoma de Buenos Aires,Ciudad Autónoma de Buenos Aires,Rolf Art,Esmeralda 1353,P.B.,1007,11,48044318,info@rolfart.com.ar,www.rolfart.com.ar,-34.59196848,-58.37839303,localización precisa,Mercado de Arte - Buenos Aires Data - Relevamiento SInCa,Privado,2022
02000010,02,02000,Galerías de Arte,Ciudad Autónoma de Buenos Aires,Ciudad Autónoma de Buenos Aires,Ciudad Autónoma de Buenos Aires,Ruth Benzacar,J. R. de Velasco 1287,,1414,11,43138480,consultas@ruthbenzacar.com,http://www.ruthbenzacar.com/,-34.59136900,-58.44328120,localización precisa,Arte On line - Buenos Aires Data - Relevamiento SINCA 2022,Privado,2022
02000010,02,02000,Galerías de Arte,Ciudad Autónoma de Buenos Aires,Ciudad Autónoma de Buenos Aires,Ciudad Autónoma de Buenos Aires,SAAP Sociedad Argentina de Artistas Plásticos ,Viamonte 458,,1053,,,infosaap2@gmail.com,http://www.saap.com.ar/,-34.59976619,-58.37343853,localización precisa,Buenos Aires Data,Privado,2021
02000010,02,02000,Galerías de Arte,Ciudad Autónoma de Buenos Aires,Ciudad Autónoma de Buenos Aires,Ciudad Autónoma de Buenos Aires,Sara García Uriburu,Uruguay 1223,P.B.,1016,11,48130148,,,-34.59408840,-58.38738910,localización precisa,Buenos Aires Data,Privado,2021
02000010,02,02000,Galerías de Arte,Ciudad Autónoma de Buenos Aires,Ciudad Autónoma de Buenos Aires,Ciudad Autónoma de Buenos Aires,Selvanegra Galería ,Gurruchaga 301,,1414,,,galeriaselvanegra@gmail.com,https://www.facebook.com/selvanegragaleria.ar/,-34.59885639,-58.44356556,localización precisa,Buenos Aires Data,Privado,2022
02000010,02,02000,Galerías de Arte,Ciudad Autónoma de Buenos Aires,Ciudad Autónoma de Buenos Aires,Ciudad Autónoma de Buenos Aires,Slyzmud,Bonpland 721,,1414,11,48570334,larisa@slyzmud.com,,-34.59066200,-58.44623600,localización precisa,Relevamiento SInCA 2016,Privado,2022
02000010,02,02000,Galerías de Arte,Ciudad Autónoma de Buenos Aires,Ciudad Autónoma de Buenos Aires,Ciudad Autónoma de Buenos Aires,Smart Gallery BA,Av. Alvear 1580,,1014,11,1562732429,arte@smartgalleryba.com,https://www.facebook.com/smartgalleryba,-34.59001576,-58.38567979,localización precisa,Buenos Aires Data,Privado,2022
02000010,02,02000,Galerías de Arte,Ciudad Autónoma de Buenos Aires,Ciudad Autónoma de Buenos Aires,Ciudad Autónoma de Buenos Aires,Soler Espacio de Arte,Soler 5072,,1425,11,47710282,danielsolerart@gmail.com,https://www.facebook.com/solerespaciodearte/,-34.58428511,-58.42837318,localización precisa,Buenos Aires Data,Privado,2021
02000010,02,02000,Galerías de Arte,Ciudad Autónoma de Buenos Aires,Ciudad Autónoma de Buenos Aires,Ciudad Autónoma de Buenos Aires,Sophie Espacio De Arte,Uriarte 2142,,1425,11,1540438774,cvera8962@gmail.com,https://www.facebook.com/espaciodeartesophie/,-34.5837933,-58.4266787,localización precisa,AAGA - Buenos Aires Data,Privado,2022
02000010,02,02000,Galerías de Arte,Ciudad Autónoma de Buenos Aires,Ciudad Autónoma de Buenos Aires,Ciudad Autónoma de Buenos Aires,Sputnik,Dr. Enrique Finocchietto 545,,1143,11,43078914,sputnikgaleria@gmail.com,https://www.facebook.com/sputnik.galeria/,-34.62798780,-58.37293970,localización precisa,Relevamiento SInCA 2016,Privado,2022
02000010,02,02000,Galerías de Arte,Ciudad Autónoma de Buenos Aires,Ciudad Autónoma de Buenos Aires,Ciudad Autónoma de Buenos Aires,Suipacha Galería ,Suipacha 1248 ,,1011,11,43221566,egruskin@suipachagaleria.com.ar,http:/www.suipachagaleria.com.ar,-34.59341510,-58.38016140,localización precisa,Buenos Aires Data,Privado,2021
02000010,02,02000,Galerías de Arte,Ciudad Autónoma de Buenos Aires,Ciudad Autónoma de Buenos Aires,Ciudad Autónoma de Buenos Aires,Tienda Quorum,Defensa 894,,1066,,,hola@tiendaquorum.com,https://www.tiendaquorum.com/,-34.61836138,-58.37157498,localización precisa,Buenos Aires Data,Privado,2022
02000010,02,02000,Galerías de Arte,Ciudad Autónoma de Buenos Aires,Ciudad Autónoma de Buenos Aires,Ciudad Autónoma de Buenos Aires,Transarte Emergencias Culturales,Defensa 1326,,1143,,,,,-34.62339513,-58.37121434,localización precisa,Buenos Aires Data,Privado,2021
02000010,02,02000,Galerías de Arte,Ciudad Autónoma de Buenos Aires,Ciudad Autónoma de Buenos Aires,Ciudad Autónoma de Buenos Aires,Untitled Contemporary Art,Quintana y Ortíz,,1129,11,1550367360,untitledarthouse@gmail.com,Facebook: Untitled Contemporary Art,-34.59996200,-58.43868850,localización precisa,Arte On line - Buenos Aires Data,Privado,2021
02000010,02,02000,Galerías de Arte,Ciudad Autónoma de Buenos Aires,Ciudad Autónoma de Buenos Aires,Ciudad Autónoma de Buenos Aires,Ursomarzo Galería De Arte,Arenales 921 ,,1061,11,43930871,info@galeriaursomarzo.com.ar,Facebook: galeria Urso,-34.59404130,-58.38029640,localización precisa,Arte On line,Privado,2022
02000010,02,02000,Galerías de Arte,Ciudad Autónoma de Buenos Aires,Ciudad Autónoma de Buenos Aires,Ciudad Autónoma de Buenos Aires,Uv Estudios,Humboldt 401,,1414,11,153331745,info@uvestudios.com,https://www.facebook.com/uvestudios/,-34.59499390,-58.44808360,localización precisa,Buenos Aires Data,Privado,2021
02000010,02,02000,Galerías de Arte,Ciudad Autónoma de Buenos Aires,Ciudad Autónoma de Buenos Aires,Ciudad Autónoma de Buenos Aires,Van Riel,Juncal 790,P.B.,1062,11,43135553,info@galeriavanriel.com.ar,http://www.galeriavanriel.com.ar/,-34.59281740,-58.37841040,localización precisa,AAGA - Buenos Aires Data,Privado,2022
02000010,02,02000,Galerías de Arte,Ciudad Autónoma de Buenos Aires,Ciudad Autónoma de Buenos Aires,Ciudad Autónoma de Buenos Aires,Walden Gallery,Viamonte 452,,1053,11,39725524,info@waldengallery.com,http://www.waldengallery.com,-34.59957586,-58.37334546,localización precisa,Buenos Aires Data - Relevamiento SINCA,Privado,2022
02000010,02,02000,Galerías de Arte,Ciudad Autónoma de Buenos Aires,Ciudad Autónoma de Buenos Aires,Ciudad Autónoma de Buenos Aires,Witcomb Galería De Arte,Rodríguez Peña 1050,,1020,11,52919956,contacto@galeriaswitcomb.com.ar,http://www.galeriaswitcomb.com.ar/,-34.59658220,-58.39212500,localización precisa,Arte On line - Buenos Aires Data - Relevamiento SINCA 2022,Privado,2022
02000010,02,02000,Galerías de Arte,Ciudad Autónoma de Buenos Aires,Ciudad Autónoma de Buenos Aires,Ciudad Autónoma de Buenos Aires,Zavaleta Lab,Defensa 269,2°,1007,11,45895314,info@zavaletalab.com,,-34.61095160,-58.37223150,localización precisa,Buenos Aires Data,Privado,2021
02000010,02,02000,Galerías de Arte,Ciudad Autónoma de Buenos Aires,Ciudad Autónoma de Buenos Aires,Ciudad Autónoma de Buenos Aires,Zurbarán,Cerrito 1522,,1010,11,48151556,jzenteno@zurbaran.com.ar,https://www.facebook.com/ZurbaranArteArgentino,-34.58975490,-58.38258700,localización precisa,Arte On line - Buenos Aires Data,Privado,2022
14014010,15,14014,Galerías de Arte,Córdoba,Capital,Córdoba,Vía Margutta Arte Contemporáneo,Sucre 180 ,P.A.,5000,351,155902214,info@viamargutta.com.ar,www.viamargutta.com.ar,-31.41228814,-64.18843473,localización precisa,AAGA,Privado,2022
14014010,14,14014,Galerías de Arte,Córdoba,Capital,Córdoba,Manifiesto Alegría,Roque Sáenz Peña 1509,4°,5000,351,4724522,,https://www.instagram.com/manifiestoalegria/,-31.39933450,-64.18161450,localización precisa,Mercado de Arte - relevamiento SInCa,Privado,2022
14014010,14,14015,Galerías de Arte,Córdoba,Capital,Córdoba,Abre Galería de Arte ,Independencia 828,P.B.,5000,,,abre.galeriadearte@gmail.com,https://www.facebook.com/abre.galeriadearte,-31.42550250,-64.18837680,localización precisa,Relevamiento SInCA,Privado,2022
14014010,14,14014,Galerías de Arte,Córdoba,Capital,Córdoba,Nodo 940,9 de julio 40,,5000,3543,15534234,nodo940@gmail.com,https://www.facebook.com/nodo940arte,-31.41469000,-64.18407100,localización precisa,RCC,Privado,2022
14014010,14,14014,Galerías de Arte,Córdoba,Capital,Córdoba,Espacio Colón,Av. Colón 76,7°,5000,351,156519734,joselorenzo44@gmail.com ,,-31.41340860,-64.18394610,localización precisa,RCC,Privado,2022
14014010,14,14014,Galerías de Arte,Córdoba,Capital,Córdoba,The White Lodge,Av. Emilio Olmos 15,,5000,351,5721307,hola@thewhitelodge.art,www.thewhitelodge.com.ar,-31.41353870,-64.18271050,localización precisa,Mercado de Arte - relevamiento SInCa,Privado,2022
14014010,14,14014,Galerías de Arte,Córdoba,Capital,Córdoba,220 Cultura Contemporánea,Av. Intendente Mestre Sur 1117,,5000,351,153532427,info@220cultura.com,http://220cultura.com/,-31.40574610,-64.19699670,localización precisa,RCC,Privado,2022
14014010,14,14014,Galerías de Arte,Córdoba,Capital,Córdoba,El Gran Vidrio ,Humberto Primo 497,,5001,351,156797231,info@elgranvidrio.com,https://www.facebook.com/fundacionelgranvidrio/,-31.40836079,-64.18847396,localización precisa,Arte On line,Privado,2022
14014010,14,14014,Galerías de Arte,Córdoba,Capital,Córdoba,Sala de Exposiciones Ernesto Farina (Univ. Prov. Cba),Av. Pablo Ricchieri 1955,,5000,351,4430362,salafarina.upc@gmail.com  irozze@upc.edu.ar,http://www.upc.edu.ar/sala-farina/,-31.43541450,-64.17496540,localización precisa,RCC,Privado,2022
14014010,14,14014,Galerías de Arte,Córdoba,Capital,Córdoba,"Marchiaro, Galería De Arte",Belgrano 609,,5000,351,4215794,info@galeriamarchiaro.com.ar,https://www.facebook.com/galeriamarchiaro,-31.42210680,-64.19105730,localización precisa,Arte On line,Privado,2022
14014010,14,14014,Galerías de Arte,Córdoba,Capital,Córdoba,Tienda de Arte y Libros Mil Grullas,Belgrano 893,,5000,351,4693604,milgrullaste@gmail.com,https://milgrullas.mitiendanube.com/,-31.42530900,-64.19254050,localización precisa,RCC,Privado,2022
14014010,14,14014,Galerías de Arte,Córdoba,Capital,Córdoba,Espacio 130,Bv. Illia 130,,5000,351,4245931,espacio130@gmail.com,https://www.facebook.com/Espacio130,-31.42097970,-64.18446890,localización precisa,AAGA,Privado,2022
14014010,14,14014,Galerías de Arte,Córdoba,Capital,Córdoba,Bitácora De Vuelo,Carola lorenzini 881,,5000,351,156196654,contenidos@bitacoradevuelo.com.ar,www.bitacoradevuelo.com.ar,-31.35460910,-64.18520640,localización precisa,Arte On line,Privado,2022
14014010,14,14014,Galerías de Arte,Córdoba,Capital,Córdoba,Artecasa Galería De Arte,Entre Ríos 52,,5000,351,156365960,artecasagaleriadearte@gmail.com,http://www.artecasagaleriadearte.com/,-31.41843000,-64.18473000,localización precisa,Mercado de Arte - relevamiento SInCa,Privado,2022
14014010,14,14014,Galerías de Arte,Córdoba,Capital,Córdoba,Bastón Del Moro,Chacabuco 483,,5000,351,6226065,bastondelmoro@gmail.com.ar,https://www.facebook.com/bastondelmoro/,-31.42307220,-64.18227270,localización precisa,Arte On line,Privado,2022
14014010,14,14014,Galerías de Arte,Córdoba,Capital,Córdoba,Artis Galería,Roberto Barani 6075,,5000,351,5556083,artisgaleria@gmail.com,https://www.facebook.com/artis.galeria/,-31.34805235,-64.27227723,localización precisa,Mercado de Arte - relevamiento SInCa,Privado,2022
14014010,14,14014,Galerías de Arte,Córdoba,Capital,Córdoba,Fragueiro 412,Fragueiro 412,,5000,351,7667963,fragueiro412@gmail.com,https://www.facebook.com/fragueiro412/,-31.40841580,-64.19172720,localización precisa,Arte On line,Privado,2022
14014010,14,14014,Galerías de Arte,Córdoba,Capital,Córdoba,Tierra – Arte Contemporáneo,Fructuoso Rivera 725,8°,5000,351,152274909,fferreyrarte@gmail.com,https://www.facebook.com/Tierraartecontemporaneo/,-31.42354730,-64.19827640,localización precisa,Mercado de Arte - relevamiento SInCa,Privado,2022
14014010,14,14014,Galerías de Arte,Córdoba,Capital,Córdoba,Piccadilly Galería de Arte,Miguel de Cervantes 422,,5000,351,153302697,piccadillygaleriadearte@gmail.com cotychiappini@gmail.com emilianoariasmercader@gmail.com,https://www.facebook.com/piccadillygaleriadearte,-31.38956037,-64.18008929,localización precisa,RCC,Privado,2022
14014010,14,14014,Galerías de Arte,Córdoba,Capital,Córdoba,La Cúpula Galería De Arte / Medialab,Humberto primo 14,2° Dpto 7,5000,351,4230503,,https://www.facebook.com/lacupulagaleria/,-31.41011730,-64.18182970,localización precisa,Relevamiento ciudades creativas,Privado,2022
14014010,14,14014,Galerías de Arte,Córdoba,Capital,Córdoba,Sacha Mistol,José Rivera Indarte 237,,5000,351,4242646,info@sachamistol.com,www.sachamistol.com,-31.40267700,-64.17965200,localización precisa,Mercado de Arte - relevamiento SInCa,Privado,2022
14014010,14,14014,Galerías de Arte,Córdoba,Capital,Córdoba,Múrua & Asociados Galería,José Roque Funes 2065,,5009,351,4816166,chmurua.yasoc@gmail.com,https://www.facebook.com/murua.asociados/,-31.36862890,-64.23388440,localización precisa,Arte On line,Privado,2022
14014010,14,14014,Galerías de Arte,Córdoba,Capital,Córdoba,Ediciones Documenta Escénicas,Lima 364,,5000,351,4290280,edicionesdocumenta@gmail.com,http://edicionesdocumenta.com.ar/,-31.41400830,-64.17784580,localización precisa,Mercado de Arte - relevamiento SInCa,Privado,2022
14014010,14,14014,Galerías de Arte,Córdoba,Capital,Córdoba,Pinball,Marcelo T. de Alvear 534,8°,5000,351,152421893,,,-31.42113620,-64.19107870,localización precisa,Mercado de Arte - relevamiento SInCa,Privado,2020
14014010,14,14014,Galerías de Arte,Córdoba,Capital,Córdoba,Centro de Producción e Investigaciónn en Artes - CEPIA ,Medina Allende SN U.N.C,,5000,351,5353630,comunicacioncepia@artes.unc.edu.ar,https://www.facebook.com/cepia.artes.unc.edu.ar/,-31.43517350,-64.19155860,localización precisa,RCC,Privado,2022
14014010,14,14014,Galerías de Arte,Córdoba,Capital,Córdoba,María Wonda Gallery,Maipú 251,,5009,351,156521940,mariawondagallery@gmail.com,https://www.facebook.com/mariawondagallery/,-31.41411883,-64.17914413,localización precisa,Arte On line,Privado,2022
14014010,14,14014,Galerías de Arte,Córdoba,Capital,Córdoba,María Elena Kravetz Gallery,Peatonal 25 de mayo 240 ,,5000,351,4239451,mariaelenakravetzgallery@gmail.com,http://www.mariaelenakravetzgallery.com/,-31.41077810,-64.18183080,localización precisa,Arte On line,Privado,2022
14014010,14,14014,Galerías de Arte,Córdoba,Capital,Córdoba,"Sasha D, Espacio De Arte",Casaffousth 1566,,5000,351,156450684,alejandrodavila@sashadavila.com,http://www.sashadavila.com/,-31.39957456,-64.19883540,localización precisa,Arte On line,Privado,2022
14014010,14,14014,Galerías de Arte,Córdoba,Capital,Córdoba,Casa taller,RamÌrez de Velazco 957,,5000,351,157079652,casatallercordoba@gmail.com nicolas.artenico@gmail.com,http://casatallercordoba.blogspot.com.ar/,-31.40463800,-64.19294200,localización precisa,RCC,Privado,2022
14014010,14,14014,Galerías de Arte,Córdoba,Capital,Córdoba,I Love Asado Arte Contemporáneo ,,,5000,351,6806410,,https://www.facebook.com/iloveasadoartecontemporaneo/,-31.41381662,-64.18333843,localización por localidad,Relevamiento ciudades creativas,Privado,2022
14014010,14,14014,Galerías de Arte,Córdoba,Capital,Córdoba,Galería Cerrito,San Luis 145,L.6,5000,351,5980381,info@galeriacerrito.com,https://www.facebook.com/galeriacerrito,-31.42288990,-64.18906580,localización precisa,Arte On line,Privado,2022
14014010,14,14014,Galerías de Arte,Córdoba,Capital,Córdoba,Centro Cultural María Castaña,Tucuman 260,,5000,351,4235529,mcastana@onenet.com.ar,www.teatromariacastana.wordpress.com,-31.41181540,-64.18675340,localización precisa,RCC,Privado,2022
14021050,14,14021,Galerías de Arte,Córdoba,Colón,Colonia Caroya,Ankara Arte Contemporáneo,Guillermo Roggio (sur) 92,,5223,3525,462206,galeriaankara@gmail.com,www.arteankara.com.ar,-31.02130470,-64.06295170,localización precisa,AAGA,Privado,2022
14021280,14,14021,Galerías de Arte,Córdoba,Colón,Unquillo,Arte U Tienda De  Originales,Camino a Los Quebrachitos Km 5 1/2,,5109,351,2641790,,,-31.20603170,-64.35188950,localización precisa,Mercado de Arte - relevamiento SInCa,Privado,2022
14021280,14,14021,Galerías de Arte,Córdoba,Colón,Unquillo,ARTE O NADA,Angela Diana y Camino a Quebrachitos,,5109,,,celeste_quera@hotmail.com,https://www.facebook.com/arteonada,-31.21257868,-64.34949696,localización aproximada,,Privado,2022
14021280,14,14021,Galerías de Arte,Córdoba,Colón,Unquillo,"Esaa, Estudio De Soluciones Artístico-Arquitectónicas",Rosario 96 ,,5109,351,6367983,esaa.unquillo@gmail.com,https://www.facebook.com/esaa.arte/,-31.23703440,-64.31424020,localización precisa,Mercado de Arte - relevamiento SInCa,Privado,2020
14091110,14,14091,Galerías de Arte,Córdoba,Punilla,La Cumbre,Júpiter,9 de Julio 346,,5178,3548,451684,anasgilligan@gmail.com,http://galeriajupiter.blogspot.com.ar/,-30.98229523,-64.48909886,localización precisa,Relevamiento SInCA 2022,Privado,2022
14147110,14,14147,Galerías de Arte,Córdoba,Santa Maria,Falda del Carmen,Busmiren Tienda De Arte,Camino al observatorio KM 1 ,,5187,351,15636570,info@busmiren.com.ar,www.busmiren.com.ar,-31.58937190,-64.46507720,localización precisa,AAGA,Privado,2022
30098040,30,30098,Galerías de Arte,Entre Ríos,Uruguay,Concepcion del Uruguay,Casa-Taller Artes Visuales,Alberdi 421,,3260,3442,487255,,https://www.facebook.com/solhmarte/,-32.48528000, -58.22716,localización precisa,Fondo Desarrollar 2020,Privado,2022
42021020,42,42021,Galerías de Arte,La Pampa,Capital,Santa Rosa,Vermú,Av. Pedro Luro 615,,6300,295,4772544,vermugaleria@gmail.com,https://www.facebook.com/vermugaleria/,-36.62343580,-64.28144110,localización precisa,Mercado de Arte - relevamiento SInCa,Privado,2022
50007010,50,50007,Galerías de Arte,Mendoza,Capital,Mendoza,Espacio De Arte Gabriela Scordo,Paseo Alameda 1899,,5500,,,,https://www.instagram.com/gabrielascordoarte,-32.87816450,-68.85673250,localización precisa,Relevamiento SInCA 2016,Privado,2022
50007010,50,50007,Galerías de Arte,Mendoza,Capital,Mendoza,Casa Palmera Galeria,Rufino Ortega 162,,5500,261,75455693,casapalmeragaleria@gmail.com,https://www.facebook.com/casapalmeragaleria/,-32.89184000,-68.85226000,localización precisa,Fondo Desarrollar 2020,Privado,2022
50007010,50,50007,Galerías de Arte,Mendoza,Capital,Mendoza ,"Daniel Rueda, Galería De Arte",Montevideo 230,8°,5500,,,galeriadanielrueda@gmail.com,https://www.facebook.com/danielruedagaleria/,-32.89242480,-68.84291300,localización precisa,Arte On line,Privado,2022
58035070,58,58035,Galerías de Arte,Neuquén,Añelo,San Patricio del Chañar,Mercado de Creadores,Bodega Malma Ruta Provincial n°7,,8306,,,hola@mercadodecreadores.com,https://www.mercadodecreadores.com/,-38.54874072,-68.41293370,localización precisa,Municipalidad de NeuquÌ©n - Red de Ciudades Creativas,Privado,2022
58035070,58,58035,Galerías de Arte,Neuquén,Confluencia,Neuquén,Loca de Atar,Limay Mahuida 3016,,8300,299,4484877,info@locasdeatar.com.ar,www.instagram.com/locadeatargaleria/,-38.96077040,-68.01735776,localización precisa,Municipalidad de NeuquÌ©n - Red de Ciudades Creativas,Privado,2022
66028050,66,66028,Galerías de Arte,Salta,Capital,Salta,Kiosco de Arte,Caseros 662,,4400,,,,https://www.instagram.com/kiosko_de_arte/,-24.78962770,-65.41176530,localización precisa,RCC,Privado,2022
66028050,66,66028,Galerías de Arte,Salta,Capital,Salta,Galeria El Palacio,Mitre 37,,4400,387,4228008,marketing_elpalacio@yahoo.com,https://www.facebook.com/elpalaciogalerias/,-24.90702730,-65.48819390,localización precisa,RCC,Privado,2022
70028010,70,70028,Galerías de Arte,San Juan,Capital,San Juan,Parral Galería,Rivadavia Oeste 141,,5402,264,6137733,hola@parralgaleria.com,,-31.53675000,-68.52786000,localización precisa,Fondo Desarrollar 2020,Privado,2020
38021060,60,38021,Galerías de Arte,San Salvador de Jujuy,Dr. Manuel Belgrano,San Salvador de Jujuy,Quilla Galería de Arte y Diseño,Independencia 1173,,4600,,,quillagaleria@gmail.com,https://www.facebook.com/quillagaleriadearte/,-24.18826201,-65.30892230,localización precisa,Fondo Desarrollar 2021,Privado,2022
82021310,82,82021,Galerías de Arte,Santa Fe,Castellanos,Rafaela,LAVA,Avellaneda 366,,2300,3492,677342,espacio@lava.com.ar,https://www.facebook.com/espaciolava/,-31.24483112,-61.49724249,localización precisa,Fondo Desarrollar 2021,Privado,2022
82063170,82,82063,Galerías de Arte,Santa Fe,La Capital,Santa Fe,AG Arte,Blvd. Gálvez 1514,,3000,3492,4564669,agartesantafe@gmail.com,https://www.facebook.com/AGartegaleria/,-31.63803100,-60.69141100,localización precisa,Municipalidad de Santa Fe - Red de Ciudades Creativas,Privado,2022
82063170,82,82063,Galerías de Arte,Santa Fe,La Capital,Santa Fe,Delta Espacio,Necochea 3799,,3002,342,155021834,hola@deltaespacio.com.ar,https://www.facebook.com/deltaespacio,-31.63457242,-60.69372009,localización precisa,Fondo Desarrollar 2020,Privado,2022
82063170,82,82063,Galerías de Arte,Santa Fe,La Capital,Santo Tomé,Zurbarán Santa Fe,Club de Campo El Paso-calle Los Robles ,,3016,,,,,-31.63625723,-60.75885906,localización precisa,Municipalidad de Santa Fe - Red de Ciudades Creativas,Privado,2022
82063170,82,82063,Galerías de Arte,Santa Fe,La Capital,Santa Fe,MADE por amor al arte ,Sarmiento 3060,,3000,342,4561770,holamade@hotmail.com,https://www.facebook.com/MADE.3060/,-31.64189100,-60.69459200,localización precisa,Municipalidad de Santa Fe - Red de Ciudades Creativas,Privado,2022
82084270,82,82084,Galerías de Arte,Santa Fe,Rosario,Rosario,Diego Obligado Galería De Arte,Güemes 2255,,2000,341,4406585,info@diegoobligado.com,www.diegoobligado.com,-32.93294795,-60.65146866,localización precisa,Mercado de Arte - relevamiento SInCa 2022,Privado,2022
82084270,82,82084,Galerías de Arte,Santa Fe,Rosario,Rosario,Crudo Arte Contemporáneo,Italia 1044,,2000,341,153899915,contacto@crudocontemporaneo.com,https://crudocontemporaneo.com/es,-32.94752140,-60.64877728,localización precisa,Fondo Desarrollar 2020,Privado,2022
82084270,82,82084,Galerías de Arte,Santa Fe,Rosario,Rosario,Nazareno O. Artes Antigüedades Coleccionables ,Italia 917,,2000,341,4496300,,,-32.94611560,-60.64811870,localización precisa,Relevamiento SInCA 2016,Privado,2022
82084270,82,82084,Galerías de Arte,Santa Fe,Rosario,Rosario,Gabelich Contemporáneo,Corvalán 448,,2000,341,15566753,gabelichcontemporaneo@gmail.com,https://www.facebook.com/GabelichContemporaneo,-32.92368153,-60.66998290,localización precisa,Mercado de Arte - relevamiento SInCa,Privado,2022
86035090,86,86035,Galerías de Arte,Santiago del Estero,Banda,La Banda,Mantera Galeria,Feria del predio Ferrocarril Mitre,,4300,385,154095378,,,-27.73185300,-64.24131000,localización aproximada,Fondo Desarrollar 2020,Privado,2020
86049110,86,86049,Galerías de Arte,Santiago del Estero,Capital,Santiago del Estero,"La Bohardilla, Cámara De Arte",Independencia y 9 de julio,,4200,,,camaradeartelabohardilla@gmail.com,https://www.facebook.com/camaradeartelabohardilla/,-27.78860650,-64.25785730,localización precisa,AAGA,Privado,2022
86049110,86,86049,Galerías de Arte,Santiago del Estero,Capital,Santiago del Estero,Cronos Galería de Arte y Diseño,Salta 57,,4200,3856,410583,cronosgaleria@gmail.com,https://www.facebook.com/cronosgaleriasde/,-27.78580125,-64.26298835,localización precisa,Fondo Desarrollar 2020,Privado,2022
86063020,86,86063,Galerías de Arte,Santiago del Estero,Choya ,Frías,El Perro Andaluz,Juan Felipe Ibarra 183,,4230,,,,https://www.facebook.com/elperroandaluzfrias/,-28.63908921,-65.13348121,localización precisa,Fondo Desarrollar 2021,Privado,2022
90084010,90,90084,Galerías de Arte,Tucumán,Capital,San Miguel de Tucumán,El Galpón,25 De mayo 2099,,4000,,,,Facebook: Galpón 20.99,-26.80230230,-65.19798490,localización precisa,RCC,Privado,2022
90084010,90,90084,Galerías de Arte,Tucumán,Capital,San Miguel de Tucumán,Limbo arte impreso,Lavalle 1693,,4000,381,4216335,limbomultiespacioalternativo@gmail.com,https://www.facebook.com/limboartetucuman/,-26.83472239,-65.22507200,localización precisa,RCC,Privado,2022
90084010,90,90084,Galerías de Arte,Tucumán,Capital,San Miguel de Tucumán,Art & Deco,Entre Ríos 317,,4000,381,4581416,,,-26.83606970,-65.20144062,localización precisa,RCC,Privado,2022
90084010,90,90084,Galerías de Arte,Tucumán,Capital,San Miguel de Tucumán,Fundación para el Arte Contemporáneo,Provincia de Jujuy 337,,4000,381,4314535,,https://www.instagram.com/factfundacion/,-26.83420000,-65.21217000,localización precisa,Fondo Desarrollar 2020,Privado,2020
90084010,90,90084,Galerías de Arte,Tucumán,Capital,San Miguel de Tucumán,El Pasaje,Pje. 1° de Noviembre 1312,,4000,381,155304389,elpasajetucuman@gmail.com,https://www.facebook.com/lepasajetucuman/,-26.81030550,-65.21331020,localización precisa,RCC,Privado,2022
90084010,90,90084,Galerías de Arte,Tucumán,Capital,San Miguel de Tucumán,El Taller,Santa Fe 240,,4000,381,4301250,eltaller@eltallerarteyoficio.com.ar,https://www.facebook.com/ElTallerTuc/,-26.82093220,-65.19842900,localización precisa,RCC,Privado,2022
90105080,90,90105,Galerías de Arte,Tucumán,Tafí Viejo,Tafí Viejo,Fulana Galería,Sarmiento 88,,4103,381,5044293,fulanagaleria@gmail.com,https://www.fulanagaleria.com,-26.73452000,-65.25603000,localización precisa,Fondo Desarrollar 2020,Privado,2022
